{"type":"FeatureCollection","features":[{"type":"Feature","properties":{"@id":"node/2020040717","amenity":"fast_food","name":"La Tanière"},"geometry":{"type":"Point","coordinates":[6.5009183,46.8227693]},"id":"node/2020040717"},{"type":"Feature","properties":{"@id":"node/2397886312","amenity":"fast_food","name":"Take Away Kebab","source":"knowledge"},"geometry":{"type":"Point","coordinates":[6.5031206,46.8216871]},"id":"node/2397886312"},{"type":"Feature","properties":{"@id":"node/2397886315","amenity":"fast_food","name":"Thaï Siri Take Away","source":"knowledge"},"geometry":{"type":"Point","coordinates":[6.5012013,46.8228703]},"id":"node/2397886315"},{"type":"Feature","properties":{"@id":"node/2619730940","addr:city":"Sainte-Croix","addr:postcode":"1450","addr:street":"Rue Centrale","amenity":"fast_food","cuisine":"Sandwiches_and_Bagels","name":"The Bunch Factory","website":"http://www.thebunchfactory.ch"},"geometry":{"type":"Point","coordinates":[6.5015385,46.8239257]},"id":"node/2619730940"}]}
